NORAD_CAT_ID,OBJECT_NAME,OBJECT_TYPE,EPOCH,MEAN_MOTION,ECCENTRICITY,INCLINATION,RA_OF_ASC_NODE,ARG_OF_PERICENTER,MEAN_ANOMALY,BSTAR,MEAN_MOTION_DOT,MEAN_MOTION_DDOT,TLE_LINE0,TLE_LINE1,TLE_LINE2,SEMIMAJOR_AXIS,PERIOD,APOGEE,PERIGEE,DECAYED
52692.0,STARLINK-3993,PAYLOAD,2023-02-09 11:52:55,15.08839716,0.0001713,53.2182,150.8349,85.8801,274.2387,8.313e-05,1.035e-05,0.0,0 STARLINK-3993,1 52692U 22053AN  23040.49508864  .00001035  00000-0  83130-4 0  9997,2 52692  53.2182 150.8349 0001713  85.8801 274.2387 15.08839716 41432,6917.881,95.438,540.931,538.561,0.0
52692.0,STARLINK-3993,PAYLOAD,2023-02-09 15:03:41,15.08837271,0.0001199,53.2162,150.241,58.7324,301.3786,0.00015971,2.255e-05,0.0,0 STARLINK-3993,1 52692U 22053AN  23040.62756834  .00002255  00000-0  15971-3 0  9996,2 52692  53.2162 150.2410 0001199  58.7324 301.3786 15.08837271 41451,6917.889,95.438,540.583,538.924,0.0
52692.0,STARLINK-3993,PAYLOAD,2023-02-10 00:36:00,15.08844567,0.0001787,53.217,148.4563,64.699,295.4187,-5.8763e-05,-1.223e-05,0.0,0 STARLINK-3993,1 52692U 22053AN  23041.02500933 -.00001223  00000-0 -58763-4 0  9991,2 52692  53.2170 148.4563 0001787  64.6990 295.4187 15.08844567 41517,6917.866,95.437,540.968,538.495,0.0
52692.0,STARLINK-3993,PAYLOAD,2023-02-10 11:43:43,15.08834571,0.0001743,53.2172,146.3745,74.8058,285.3127,5.8431e-05,6.42e-06,0.0,0 STARLINK-3993,1 52692U 22053AN  23041.48869574  .00000642  00000-0  58431-4 0  9994,2 52692  53.2172 146.3745 0001743  74.8058 285.3127 15.08834571 41187,6917.897,95.438,540.968,538.556,0.0
52692.0,STARLINK-3993,PAYLOAD,2023-02-10 13:19:06,15.08839569,0.0001693,53.2168,146.0757,78.4896,281.6287,5.2575e-05,5.49e-06,0.0,0 STARLINK-3993,1 52692U 22053AN  23041.55493263  .00000549  00000-0  52575-4 0  9999,2 52692  53.2168 146.0757 0001693  78.4896 281.6287 15.08839569 41599,6917.882,95.438,540.918,538.576,0.0
52692.0,STARLINK-3993,PAYLOAD,2023-02-11 00:26:48,15.08834416,0.0001511,53.2177,143.994,75.8598,284.2562,3.4276e-05,2.57e-06,0.0,0 STARLINK-3993,1 52692U 22053AN  23042.01861694  .00000257  00000-0  34276-4 0  9992,2 52692  53.2177 143.9940 0001511  75.8598 284.2562 15.08834416 41667,6917.897,95.438,540.808,538.717,0.0
52692.0,STARLINK-3993,PAYLOAD,2023-02-11 16:20:39,15.08842909,0.0001652,53.216,141.0199,78.5857,281.5321,7.1012e-05,8.42e-06,0.0,0 STARLINK-3993,1 52692U 22053AN  23042.68101275  .00000842  00000-0  71012-4 0  9996,2 52692  53.2160 141.0199 0001652  78.5857 281.5321 15.08842909 41364,6917.871,95.437,540.879,538.594,0.0
52692.0,STARLINK-3993,PAYLOAD,2023-02-12 13:00:40,15.08838251,0.0001125,53.2134,137.1544,74.8015,285.3102,0.00014782,2.065e-05,0.0,0 STARLINK-3993,1 52692U 22053AN  23043.54213876  .00002065  00000-0  14782-3 0  9992,2 52692  53.2134 137.1544 0001125  74.8015 285.3102 15.08838251 41897,6917.886,95.438,540.529,538.972,0.0
52692.0,STARLINK-3993,PAYLOAD,2023-02-12 22:32:59,15.08835602,0.0001611,53.216,135.3676,65.9247,294.1914,-9.1134e-05,-1.738e-05,0.0,0 STARLINK-3993,1 52692U 22053AN  23043.93957941 -.00001738  00000-0 -91134-4 0  9998,2 52692  53.2160 135.3676 0001611  65.9247 294.1914 15.08835602 41559,6917.894,95.438,540.873,538.644,0.0
52692.0,STARLINK-3993,PAYLOAD,2023-02-13 12:51:27,15.08851568,9.2e-05,53.2164,132.6947,70.1813,289.9278,0.00025907,3.839e-05,0.0,0 STARLINK-3993,1 52692U 22053AN  23044.53573102  .00003839  00000-0  25907-3 0  9994,2 52692  53.2164 132.6947 0000920  70.1813 289.9278 15.08851568 42042,6917.845,95.437,540.346,539.074,0.0
52692.0,STARLINK-3993,PAYLOAD,2023-02-13 14:26:50,15.08857856,8.28e-05,53.2133,132.3979,84.6671,275.4415,0.00016104,2.277e-05,0.0,0 STARLINK-3993,1 52692U 22053AN  23044.60196766  .00002277  00000-0  16104-3 0  9993,2 52692  53.2133 132.3979 0000828  84.6671 275.4415 15.08857856 41654,6917.826,95.436,540.264,539.118,0.0
52692.0,STARLINK-3993,PAYLOAD,2023-02-13 22:23:45,15.0885155,0.0001124,53.2164,130.9083,76.8052,283.3066,5.8928e-05,6.5e-06,0.0,0 STARLINK-3993,1 52692U 22053AN  23044.93316686  .00000650  00000-0  58928-4 0  9998,2 52692  53.2164 130.9083 0001124  76.8052 283.3066 15.08851550 41705,6917.845,95.437,540.488,538.933,0.0
52692.0,STARLINK-3993,PAYLOAD,2023-02-14 11:06:51,15.08842102,0.0001654,53.2165,128.5317,112.0864,248.0304,5.4244e-05,5.75e-06,0.0,0 STARLINK-3993,1 52692U 22053AN  23045.46309352  .00000575  00000-0  54244-4 0  9992,2 52692  53.2165 128.5317 0001654 112.0864 248.0304 15.08842102 41785,6917.874,95.437,540.883,538.595,0.0
52692.0,STARLINK-3993,PAYLOAD,2023-02-14 12:42:14,15.08848012,9.84e-05,53.2147,128.2327,80.0055,280.1048,0.00014072,1.953e-05,0.0,0 STARLINK-3993,1 52692U 22053AN  23045.52933168  .00001953  00000-0  14072-3 0  9992,2 52692  53.2147 128.2327 0000984  80.0055 280.1048 15.08848012 42198,6917.856,95.437,540.402,539.04,0.0
52692.0,STARLINK-3993,PAYLOAD,2023-02-14 17:28:23,15.08862759,0.0001242,53.2149,127.3411,88.4148,271.6987,0.0004514,6.908e-05,0.0,0 STARLINK-3993,1 52692U 22053AN  23045.72804666  .00006908  00000-0  45140-3 0  9999,2 52692  53.2149 127.3411 0001242  88.4148 271.6987 15.08862759 41827,6917.811,95.436,540.535,538.817,0.0
52692.0,STARLINK-3993,PAYLOAD,2023-02-14 22:14:33,15.0882664,8.59e-05,53.2153,126.4488,110.5724,249.5361,-0.00039581,-6.579e-05,0.0,0 STARLINK-3993,1 52692U 22053AN  23045.92677549 -.00006579  00000-0 -39581-3 0  9997,2 52692  53.2153 126.4488 0000859 110.5724 249.5361 15.08826640 41858,6917.921,95.438,540.38,539.192,0.0
52692.0,STARLINK-3993,PAYLOAD,2023-02-15 07:46:52,15.08837916,7.36e-05,53.2169,124.664,118.3642,241.7425,0.00020208,2.93e-05,0.0,0 STARLINK-3993,1 52692U 22053AN  23046.32421548  .00002930  00000-0  20208-3 0  9999,2 52692  53.2169 124.6640 0000736 118.3642 241.7425 15.08837916 41914,6917.887,95.438,540.261,539.243,0.0
52692.0,STARLINK-3993,PAYLOAD,2023-02-15 10:57:38,15.08862725,0.0001343,53.2145,124.0705,102.9822,257.132,0.0022811,0.00036225,0.0,0 STARLINK-3993,1 52692U 22053AN  23046.45669446  .00036225  00000-0  22811-2 0  9999,2 52692  53.2145 124.0705 0001343 102.9822 257.1320 15.08862725 41931,6917.811,95.436,540.605,538.747,0.0
52692.0,STARLINK-3993,PAYLOAD,2023-02-15 12:33:01,15.08878219,0.0001367,53.2147,123.773,101.175,258.9396,0.0031706,0.00050588,0.0,0 STARLINK-3993,1 52692U 22053AN  23046.52293278  .00050588  00000-0  31706-2 0  9994,2 52692  53.2147 123.7730 0001367 101.1750 258.9396 15.08878219 42347,6917.764,95.435,540.574,538.683,0.0
52692.0,STARLINK-3993,PAYLOAD,2023-02-15 14:08:24,15.08876719,0.0001453,53.2128,123.4743,94.4923,265.6235,0.0026179,0.00041665,0.0,0 STARLINK-3993,1 52692U 22053AN  23046.58917181  .00041665  00000-0  26179-2 0  9990,2 52692  53.2128 123.4743 0001453  94.4923 265.6235 15.08876719 42350,6917.768,95.435,540.638,538.628,0.0
52692.0,STARLINK-3993,PAYLOAD,2023-02-16 10:48:24,15.08910151,0.000187,53.2143,119.6096,82.6357,277.4848,0.003491,0.00055819,0.0,0 STARLINK-3993,1 52692U 22053AN  23047.45028169  .00055819  00000-0  34910-2 0  9994,2 52692  53.2143 119.6096 0001870  82.6357 277.4848 15.08910151 42088,6917.666,95.433,540.825,538.237,0.0
52692.0,STARLINK-3993,PAYLOAD,2023-02-16 12:23:47,15.08894258,0.0001244,53.2144,119.312,82.0178,278.0955,0.0026445,0.00042114,0.0,0 STARLINK-3993,1 52692U 22053AN  23047.51651971  .00042114  00000-0  26445-2 0  9992,2 52692  53.2144 119.3120 0001244  82.0178 278.0955 15.08894258 42494,6917.715,95.434,540.44,538.719,0.0
52692.0,STARLINK-3993,PAYLOAD,2023-02-16 17:09:55,15.08911361,0.000129,53.2136,118.4185,86.1299,273.984,0.0025767,0.0004104,0.0,0 STARLINK-3993,1 52692U 22053AN  23047.71523087  .00041040  00000-0  25767-2 0  9993,2 52692  53.2136 118.4185 0001290  86.1299 273.9840 15.08911361 42128,6917.662,95.433,540.42,538.635,0.0
52692.0,STARLINK-3993,PAYLOAD,2023-02-17 10:39:12,15.08804028,7.09e-05,53.2148,115.1496,137.3468,222.7579,0.0014047,0.00022116,0.0,0 STARLINK-3993,1 52692U 22053AN  23048.44389518  .00022116  00000-0  14047-2 0  9995,2 52692  53.2148 115.1496 0000709 137.3468 222.7579 15.08804028 42235,6917.99,95.44,540.346,539.365,0.0
52692.0,STARLINK-3993,PAYLOAD,2023-02-17 12:14:35,15.08812224,8.26e-05,53.2149,114.8521,112.5731,247.5348,0.0025845,0.00041053,0.0,0 STARLINK-3993,1 52692U 22053AN  23048.51013797  .00041053  00000-0  25845-2 0  9995,2 52692  53.2149 114.8521 0000826 112.5731 247.5348 15.08812224 42640,6917.965,95.439,540.402,539.259,0.0
52692.0,STARLINK-3993,PAYLOAD,2023-02-18 10:30:01,15.08845196,6.57e-05,53.216,110.6892,102.8608,257.2458,0.0019569,0.00030998,0.0,0 STARLINK-3993,1 52692U 22053AN  23049.43751237  .00030998  00000-0  19569-2 0  9997,2 52692  53.2160 110.6892 0000657 102.8608 257.2458 15.08845196 42380,6917.865,95.437,540.184,539.275,0.0
52692.0,STARLINK-3993,PAYLOAD,2023-02-18 15:16:10,15.08846601,9.9e-05,53.2153,109.7958,100.2559,259.8545,0.0014865,0.00023453,0.0,0 STARLINK-3993,1 52692U 22053AN  23049.63623168  .00023453  00000-0  14865-2 0  9992,2 52692  53.2153 109.7958 0000990 100.2559 259.8545 15.08846601 42412,6917.86,95.437,540.41,539.04,0.0
52692.0,STARLINK-3993,PAYLOAD,2023-02-19 10:20:47,15.0886018,0.0001083,53.2153,106.2273,99.0079,261.1036,0.00098412,0.00015418,0.0,0 STARLINK-3993,1 52692U 22053AN  23050.43110660  .00015418  00000-0  98412-3 0  9993,2 52692  53.2153 106.2273 0001083  99.0079 261.1036 15.08860180 42532,6917.819,95.436,540.433,538.935,0.0
52692.0,STARLINK-3993,PAYLOAD,2023-02-19 13:31:33,15.08863839,0.0001063,53.2154,105.632,100.7224,259.3887,0.00085634,0.00013376,0.0,0 STARLINK-3993,1 52692U 22053AN  23050.56358430  .00013376  00000-0  85634-3 0  9999,2 52692  53.2154 105.6320 0001063 100.7224 259.3887 15.08863839 42952,6917.808,95.436,540.408,538.937,0.0
52692.0,STARLINK-3993,PAYLOAD,2023-02-20 10:11:34,15.08849263,0.0001176,53.2155,101.766,85.9883,274.1243,0.00034406,5.193e-05,0.0,0 STARLINK-3993,1 52692U 22053AN  23051.42470430  .00005193  00000-0  34406-3 0  9999,2 52692  53.2155 101.7660 0001176  85.9883 274.1243 15.08849263 42683,6917.852,95.437,540.531,538.904,0.0
